GPS BIIR-2  (PRN 13)    
1 24876U 97035A   24009.23503040  .00000018  00000+0  00000+0 0  9990
2 24876  55.6232 133.3857 0075725  53.3785 307.2822  2.00565036194105
GPS BIIR-4  (PRN 20)    
1 26360U 00025A   24009.14875591 -.00000039  00000+0  00000+0 0  9990
2 26360  54.5366  55.4124 0041015 209.1588 179.0806  2.00561466173421
GPS BIIR-5  (PRN 22)    
1 26407U 00040A   24009.58313303  .00000073  00000+0  00000+0 0  9992
2 26407  55.1375 250.5374 0149235 293.8264 248.8851  2.00557819172105
GPS BIIR-8  (PRN 16)    
1 27663U 03005A   24009.64366528  .00000074  00000+0  00000+0 0  9996
2 27663  55.1782 250.3458 0137370  46.0561 317.4739  2.00558731153479
GPS BIIR-9  (PRN 21)    
1 27704U 03010A   24008.58760639 -.00000062  00000+0  00000+0 0  9999
2 27704  55.1156   0.2726 0253120 322.1814 216.2477  2.00556736152243
GPS BIIR-11 (PRN 19)    
1 28190U 04009A   24009.18121694 -.00000051  00000+0  00000+0 0  9995
2 28190  55.5892 311.4223 0092433 142.4915  44.4323  2.00563292145097
GPS BIIR-13 (PRN 02)    
1 28474U 04045A   24009.85154719 -.00000062  00000+0  00000+0 0  9990
2 28474  55.4433   0.5863 0164923 287.1217  72.4433  2.00537641140585
GPS BIIRM-1 (PRN 17)    
1 28874U 05038A   24009.53543626 -.00000046  00000+0  00000+0 0  9993
2 28874  55.6376 308.8639 0139330 282.4323 184.4446  2.00566619133994
GPS BIIRM-2 (PRN 31)    
1 29486U 06042A   24010.49508742  .00000095  00000+0  00000+0 0  9999
2 29486  54.6809 186.5744 0104925  36.2093 303.8798  2.00563713126714
GPS BIIRM-3 (PRN 12)    
1 29601U 06052A   24009.95298047  .00000076  00000+0  00000+0 0  9991
2 29601  55.2035 249.3012 0086749  80.1770 280.8941  2.00557002125616
GPS BIIRM-4 (PRN 15)    
1 32260U 07047A   24009.26307973 -.00000007  00000+0  00000+0 0  9999
2 32260  53.5254 116.8791 0152308  73.4157 288.2346  2.00572600118968
GPS BIIRM-5 (PRN 29)    
1 32384U 07062A   24010.31786187 -.00000044  00000+0  00000+0 0  9990
2 32384  55.7722 309.6729 0024003 149.6107  20.6584  2.00565235117746
GPS BIIRM-6 (PRN 07)    
1 32711U 08012A   24009.67832421  .00000101  00000+0  00000+0 0  9993
2 32711  54.4508 185.4081 0179718 236.7084 121.5662  2.00562138115919
GPS BIIRM-8 (PRN 05)    
1 35752U 09043A   24009.66260299 -.00000032  00000+0  00000+0 0  9997
2 35752  55.5394  62.6349 0055510  69.9826 292.3196  2.00550559105527
GPS BIIF-1  (PRN 25)    
1 36585U 10022A   24009.24936927  .00000084  00000+0  00000+0 0  9999
2 36585  54.5073 244.4610 0115100  60.5410 125.4446  2.00568515 99745
GPS BIIF-3  (PRN 24)    
1 38833U 12053A   24008.85267623  .00000100  00000+0  00000+0 0  9998
2 38833  53.5139 180.0203 0148664  54.4130 306.9659  2.00569169 81581
GPS BIIF-4  (PRN 27)    
1 39166U 13023A   24009.21721819 -.00000042  00000+0  00000+0 0  9995
2 39166  55.2511 305.0222 0120088  42.0671 318.8630  2.00563419 78036
GPS BIIF-5  (PRN 30)    
1 39533U 14008A   24009.71869194  .00000099  00000+0  00000+0 0  9992
2 39533  53.5990 185.5605 0068122 215.5701 143.9826  2.00558894 72391
GPS BIIF-6  (PRN 06)    
1 39741U 14026A   24009.50251010 -.00000056  00000+0  00000+0 0  9996
2 39741  56.7092   6.0569 0032724 310.5438  49.1951  2.00579502 70694
GPS BIIF-7  (PRN 09)    
1 40105U 14045A   24009.58716520  .00000003  00000+0  00000+0 0  9994
2 40105  54.8636 123.9873 0026836 117.1653 243.0858  2.00555003 68235
GPS BIIF-8  (PRN 03)    
1 40294U 14068A   24009.45340124 -.00000031  00000+0  00000+0 0  9999
2 40294  56.2843  65.4804 0048242  60.5826 299.9652  2.00549192 67369
GPS BIIF-9  (PRN 26)    
1 40534U 15013A   24009.59955613  .00000087  00000+0  00000+0 0  9997
2 40534  53.4054 241.0147 0086184  28.1732 332.3840  2.00575493 64400
GPS BIIF-10 (PRN 08)    
1 40730U 15033A   24009.76068365 -.00000038  00000+0  00000+0 0  9992
2 40730  54.7367 303.5526 0090992  15.6774 344.6211  2.00575371 62156
GPS BIIF-11 (PRN 10)    
1 41019U 15062A   24010.31026891 -.00000027  00000+0  00000+0 0  9994
2 41019  56.2675  65.2988 0094244 223.7934 135.5232  2.00562255 60003
GPS BIIF-12 (PRN 32)    
1 41328U 16007A   24008.89895875  .00000005  00000+0  00000+0 0  9998
2 41328  55.0639 124.8215 0075612 234.9203 124.3466  2.00569509 57986
GPS BIII-1  (PRN 04)    
1 43873U 18109A   24009.78496965  .00000008  00000+0  00000+0 0  9999
2 43873  55.2381 127.3289 0028380 191.8758 342.2551  2.00572629 37233
GPS BIII-2  (PRN 18)    
1 44506U 19056A   24009.41827257 -.00000058  00000+0  00000+0 0  9993
2 44506  55.8369   6.4071 0038711 190.4275 336.0612  2.00568451 32224
GPS BIII-3  (PRN 23)    
1 45854U 20041A   24010.26384501 -.00000028  00000+0  00000+0 0  9998
2 45854  55.9887  63.6788 0040061 192.0957 166.2027  2.00560394 26205
GPS BIII-4  (PRN 14)    
1 46826U 20078A   24009.04771223  .00000078  00000+0  00000+0 0  9997
2 46826  54.2484 246.9171 0038662 193.5346 343.3040  2.00562134 23657
GPS BIII-5  (PRN 11)    
1 48859U 21054A   24009.12727318 -.00000058  00000+0  00000+0 0  9994
2 48859  55.3578   8.1443 0014224 224.6739 194.5128  2.00566780 18907
GPS BIII-6  (PRN 28)    
1 55268U 23009A   24008.29158438  .00000112  00000+0  00000+0 0  9996
2 55268  55.0880 183.4748 0005163 100.8889 112.3901  2.00575874  7370
